{
  "type": "FeatureCollection",
  "features": [
    {
      "type": "Feature",
      "properties": {
        "norad_id": 37562,
        "name": "IRIDIUM 33 DEB",
        "group": "iridium-33-debris",
        "lat": -56.61269419374079,
        "lon": 36.748511020280354,
        "alt_km": 728.6387038870298,
        "timestamp": "2025-12-15T19:00:45.744345+00:00",
        "meta_object_name": "IRIDIUM 33 DEB",
        "meta_object_id": "1997-051XX",
        "meta_epoch": "2025-12-12T22:34:29.180064",
        "meta_mean_motion": 14.56479735,
        "meta_eccentricity": 0.00267072,
        "meta_inclination": 86.3742,
        "meta_ra_of_asc_node": 43.5127,
        "meta_arg_of_pericenter": 107.2211,
        "meta_mean_anomaly": 13.868,
        "meta_ephemeris_type": 0,
        "meta_classification_type": "U",
        "meta_norad_cat_id": 37562,
        "meta_element_set_no": 999,
        "meta_rev_at_epoch": 86331,
        "meta_bstar": 0.0015437368,
        "meta_mean_motion_dot": 6.916e-05,
        "meta_mean_motion_ddot": 0,
        "tle_line1": "1 37562U 97051XX  25346.94061551  .00006916  00000+0  15437-2 0  9999",
        "tle_line2": "2 37562  86.3742  43.5127 0026707 107.2211  13.8680 14.56479735863311"
      },
      "geometry": {
        "type": "Point",
        "coordinates": [
          36.748511020280354,
          -56.61269419374079
        ]
      }
    },
    {
      "type": "Feature",
      "properties": {
        "norad_id": 37565,
        "name": "IRIDIUM 33 DEB",
        "group": "iridium-33-debris",
        "lat": 29.289388167993827,
        "lon": 10.301072145979687,
        "alt_km": 711.6970608103529,
        "timestamp": "2025-12-15T19:00:45.744356+00:00",
        "meta_object_name": "IRIDIUM 33 DEB",
        "meta_object_id": "1997-051YA",
        "meta_epoch": "2025-12-14T08:08:01.766976",
        "meta_mean_motion": 14.51526199,
        "meta_eccentricity": 0.0015168,
        "meta_inclination": 86.3501,
        "meta_ra_of_asc_node": 8.8819,
        "meta_arg_of_pericenter": 79.3399,
        "meta_mean_anomaly": 280.9514,
        "meta_ephemeris_type": 0,
        "meta_classification_type": "U",
        "meta_norad_cat_id": 37565,
        "meta_element_set_no": 999,
        "meta_rev_at_epoch": 65860,
        "meta_bstar": 0.00061477591,
        "meta_mean_motion_dot": 2.481e-05,
        "meta_mean_motion_ddot": 0,
        "tle_line1": "1 37565U 97051YA  25348.33890934  .00002481  00000+0  61478-3 0  9992",
        "tle_line2": "2 37565  86.3501   8.8819 0015168  79.3399 280.9514 14.51526199658603"
      },
      "geometry": {
        "type": "Point",
        "coordinates": [
          10.301072145979687,
          29.289388167993827
        ]
      }
    },
    {
      "type": "Feature",
      "properties": {
        "norad_id": 38017,
        "name": "IRIDIUM 33 DEB",
        "group": "iridium-33-debris",
        "lat": 86.22049492379323,
        "lon": -90.61364308480059,
        "alt_km": 655.823526790633,
        "timestamp": "2025-12-15T19:00:45.744366+00:00",
        "meta_object_name": "IRIDIUM 33 DEB",
        "meta_object_id": "1997-051YD",
        "meta_epoch": "2025-12-14T17:44:25.791360",
        "meta_mean_motion": 14.49092663,
        "meta_eccentricity": 0.00918116,
        "meta_inclination": 86.3427,
        "meta_ra_of_asc_node": 165.3584,
        "meta_arg_of_pericenter": 96.1692,
        "meta_mean_anomaly": 264.9981,
        "meta_ephemeris_type": 0,
        "meta_classification_type": "U",
        "meta_norad_cat_id": 38017,
        "meta_element_set_no": 999,
        "meta_rev_at_epoch": 61431,
        "meta_bstar": 0.003705751,
        "meta_mean_motion_dot": 0.00014893,
        "meta_mean_motion_ddot": 0,
        "tle_line1": "1 38017U 97051YD  25348.73918740  .00014893  00000+0  37058-2 0  9991",
        "tle_line2": "2 38017  86.3427 165.3584 0091811  96.1692 264.9981 14.49092663614314"
      },
      "geometry": {
        "type": "Point",
        "coordinates": [
          -90.61364308480059,
          86.22049492379323
        ]
      }
    },
    {
      "type": "Feature",
      "properties": {
        "norad_id": 38022,
        "name": "IRIDIUM 33 DEB",
        "group": "iridium-33-debris",
        "lat": 32.18158500468746,
        "lon": -167.24655251955238,
        "alt_km": 762.1958981759872,
        "timestamp": "2025-12-15T19:00:45.744377+00:00",
        "meta_object_name": "IRIDIUM 33 DEB",
        "meta_object_id": "1997-051YJ",
        "meta_epoch": "2025-12-12T08:41:14.041248",
        "meta_mean_motion": 14.41246239,
        "meta_eccentricity": 0.00465932,
        "meta_inclination": 86.2691,
        "meta_ra_of_asc_node": 16.6083,
        "meta_arg_of_pericenter": 51.6762,
        "meta_mean_anomaly": 308.8611,
        "meta_ephemeris_type": 0,
        "meta_classification_type": "U",
        "meta_norad_cat_id": 38022,
        "meta_element_set_no": 999,
        "meta_rev_at_epoch": 69188,
        "meta_bstar": 0.001535131,
        "meta_mean_motion_dot": 5.042e-05,
        "meta_mean_motion_ddot": 0,
        "tle_line1": "1 38022U 97051YJ  25346.36196807  .00005042  00000+0  15351-2 0  9994",
        "tle_line2": "2 38022  86.2691  16.6083 0046593  51.6762 308.8611 14.41246239691882"
      },
      "geometry": {
        "type": "Point",
        "coordinates": [
          -167.24655251955238,
          32.18158500468746
        ]
      }
    },
    {
      "type": "Feature",
      "properties": {
        "norad_id": 38028,
        "name": "IRIDIUM 33 DEB",
        "group": "iridium-33-debris",
        "lat": -15.680895568139656,
        "lon": -2.091461161923073,
        "alt_km": 755.934395379566,
        "timestamp": "2025-12-15T19:00:45.744387+00:00",
        "meta_object_name": "IRIDIUM 33 DEB",
        "meta_object_id": "1997-051YQ",
        "meta_epoch": "2025-12-14T18:10:34.836096",
        "meta_mean_motion": 14.46181503,
        "meta_eccentricity": 0.00303806,
        "meta_inclination": 86.3253,
        "meta_ra_of_asc_node": 359.392,
        "meta_arg_of_pericenter": 114.704,
        "meta_mean_anomaly": 245.733,
        "meta_ephemeris_type": 0,
        "meta_classification_type": "U",
        "meta_norad_cat_id": 38028,
        "meta_element_set_no": 999,
        "meta_rev_at_epoch": 65524,
        "meta_bstar": 0.00026010373,
        "meta_mean_motion_dot": 9.55e-06,
        "meta_mean_motion_ddot": 0,
        "tle_line1": "1 38028U 97051YQ  25348.75734764  .00000955  00000+0  26010-3 0  9998",
        "tle_line2": "2 38028  86.3253 359.3920 0030380 114.7040 245.7330 14.46181503655241"
      },
      "geometry": {
        "type": "Point",
        "coordinates": [
          -2.091461161923073,
          -15.680895568139656
        ]
      }
    },
    {
      "type": "Feature",
      "properties": {
        "norad_id": 38228,
        "name": "IRIDIUM 33 DEB",
        "group": "iridium-33-debris",
        "lat": 70.15055731648312,
        "lon": 57.513660112121805,
        "alt_km": 808.9814028206256,
        "timestamp": "2025-12-15T19:00:45.744397+00:00",
        "meta_object_name": "IRIDIUM 33 DEB",
        "meta_object_id": "1997-051ZC",
        "meta_epoch": "2025-12-14T10:59:42.153792",
        "meta_mean_motion": 14.27270051,
        "meta_eccentricity": 0.00644722,
        "meta_inclination": 86.2946,
        "meta_ra_of_asc_node": 47.7393,
        "meta_arg_of_pericenter": 183.8475,
        "meta_mean_anomaly": 236.9898,
        "meta_ephemeris_type": 0,
        "meta_classification_type": "U",
        "meta_norad_cat_id": 38228,
        "meta_element_set_no": 999,
        "meta_rev_at_epoch": 84806,
        "meta_bstar": 0.00037823532,
        "meta_mean_motion_dot": 9.64e-06,
        "meta_mean_motion_ddot": 0,
        "tle_line1": "1 38228U 97051ZC  25348.45812678  .00000964  00000+0  37824-3 0  9993",
        "tle_line2": "2 38228  86.2946  47.7393 0064472 183.8475 236.9898 14.27270051848062"
      },
      "geometry": {
        "type": "Point",
        "coordinates": [
          57.513660112121805,
          70.15055731648312
        ]
      }
    },
    {
      "type": "Feature",
      "properties": {
        "norad_id": 38241,
        "name": "IRIDIUM 33 DEB",
        "group": "iridium-33-debris",
        "lat": -64.04073615081272,
        "lon": -18.336510864289046,
        "alt_km": 719.4399999975567,
        "timestamp": "2025-12-15T19:00:45.744407+00:00",
        "meta_object_name": "IRIDIUM 33 DEB",
        "meta_object_id": "1997-051ZR",
        "meta_epoch": "2025-12-13T06:13:58.226016",
        "meta_mean_motion": 14.54873749,
        "meta_eccentricity": 0.00056326,
        "meta_inclination": 86.3232,
        "meta_ra_of_asc_node": 350.3699,
        "meta_arg_of_pericenter": 72.2147,
        "meta_mean_anomaly": 287.9674,
        "meta_ephemeris_type": 0,
        "meta_classification_type": "U",
        "meta_norad_cat_id": 38241,
        "meta_element_set_no": 999,
        "meta_rev_at_epoch": 60208,
        "meta_bstar": 0.0012492013,
        "meta_mean_motion_dot": 5.385e-05,
        "meta_mean_motion_ddot": 0,
        "tle_line1": "1 38241U 97051ZR  25347.25970169  .00005385  00000+0  12492-2 0  9990",
        "tle_line2": "2 38241  86.3232 350.3699 0005632  72.2147 287.9674 14.54873749602089"
      },
      "geometry": {
        "type": "Point",
        "coordinates": [
          -18.336510864289046,
          -64.04073615081272
        ]
      }
    }
  ]
}